STARLINK-1851           
1 46783U 20074AW  21268.67263230  .00000090  00000-0  24940-4 0  9991
2 46783  53.0574  51.0819 0001329 110.0483 250.0649 15.06402449 51737
STARLINK-1882           
1 46784U 20074AX  21268.67632655  .00001495  00000-0  11923-3 0  9999
2 46784  53.0545  51.0637 0001453 101.5641 258.5511 15.06405139 51733
STARLINK-1883           
1 46785U 20074AY  21268.66158738  .00000223  00000-0  34029-4 0  9995
2 46785  53.0568  51.1463 0007380 130.4857 229.6776 15.06396393 51735
STARLINK-1893           
1 46786U 20074AZ  21268.64130242  .00000080  00000-0  24324-4 0  9992
2 46786  53.0532  31.2329 0004153 328.6180  31.4561 15.06390476 52011
STARLINK-1899           
1 46787U 20074BA  21268.63394368  .00002000  00000-0  15324-3 0  9996
2 46787  53.0516  31.2723 0004845 247.3193 112.7284 15.06391532 52010
STARLINK-1929           
1 46788U 20074BB  21268.62656963 -.00000706  00000-0 -28372-4 0  9999
2 46788  53.0582  31.2934 0005354 320.7198  39.3402 15.06393771 52018
STARLINK-1930           
1 46789U 20074BC  21268.70026118 -.00000090  00000-0  12878-4 0  9991
2 46789  53.0545  60.9703 0001820 103.4573 256.6619 15.06398870 51601
STARLINK-1931           
1 46790U 20074BD  21268.61274482 -.00000204  00000-0  51986-5 0  9993
2 46790  53.0563  61.3519 0002049  94.5558 265.5665 15.06400923 51580
STARLINK-1933           
1 46791U 20074BE  21268.69383063  .00000084  00000-0  24519-4 0  9994
2 46791  53.0560  61.0077 0001780  98.1149 262.0042 15.06402399 51604
STARLINK-1934           
1 46792U 20074BF  21268.65421573 -.00000120  00000-0  10860-4 0  9996
2 46792  53.0566  51.1794 0001709 104.9323 255.1856 15.06394943 51733
STARLINK-1941           
1 46793U 20074BG  21268.68277427  .00000789  00000-0  71868-4 0  9992
2 46793  53.0569  61.0369 0001680  99.6464 260.4715 15.06398870 51599
STARLINK-1942           
1 46794U 20074BH  21268.69014566 -.00000039  00000-0  16311-4 0  9998
2 46794  53.0551  61.0229 0001901 101.9784 258.1418 15.06401442 51600
STARLINK-1943           
1 46795U 20074BJ  21268.59353652  .00013043  00000-0  30843-3 0  9993
2 46795  53.0519  18.6267 0007711 345.3693  14.7088 15.42160574 52195
STARLINK-1944           
1 46796U 20074BK  21268.66525579 -.00000609  00000-0 -21965-4 0  9993
2 46796  53.0560  51.1201 0001923 103.2992 256.8212 15.06408790 51736
STARLINK-1947           
1 46797U 20074BL  21268.77889703  .00274974  00000-0  10974-1 0  9999
2 46797  53.0577  29.6793 0002190 130.8660 229.2526 15.23480858 52058
STARLINK-1948           
1 46798U 20074BM  21268.76339015 -.00000164  00000-0  79187-5 0  9999
2 46798  53.0545  75.6927 0002023  99.7890 260.3328 15.06395637 51402
COSMOS 2547 [GLONASS-K] 
1 46805U 20075A   21268.78245248  .00000046  00000-0  00000+0 0  9995
2 46805  64.7157 250.4177 0008754 249.4623 343.1785  2.13102901  7136
YAOGAN-30 U             
1 46807U 20076A   21268.83538366  .00000324  00000-0  35763-4 0  9998
2 46807  34.9967  44.5875 0002208 291.8539  68.1949 14.89993625 49867
YAOGAN-30 V             
1 46808U 20076B   21268.81233220  .00000334  00000-0  36767-4 0  9994
2 46808  34.9978  44.4178 0001479 203.3131 156.7507 14.89987859 49866
YAOGAN-30 W             
1 46809U 20076C   21268.85710544  .00000348  00000-0  38149-4 0  9999
2 46809  34.9994  43.8683 0007844 261.3334  98.6482 14.89999103 49861
TIANQI-6                
1 46810U 20076D   21268.72331054  .00000280  00000-0  30092-4 0  9996
2 46810  35.0048  40.1510 0015378 305.7269  54.2009 14.91534170 49893
FLOCK 4V-25             
1 46812U 20061BP  21268.94798857  .00001462  00000-0  77862-4 0  9993
2 46812  97.4273 340.6159 0004343 319.9503  40.1490 15.16772534 50753
FLOCK 4E'-1             
1 46813U 20077A   21268.78896979  .00006558  00000-0  33164-3 0  9994
2 46813  97.4587 330.4790 0010901 255.2237 104.7789 15.17326856 50293
FLOCK 4E'-7             
1 46814U 20077B   21268.74187772  .00005349  00000-0  27026-3 0  9992
2 46814  97.4590 330.5462 0011752 251.1259 108.8701 15.17439473 50298
FLOCK 4E'-9             
1 46815U 20077C   21268.75785422  .00007123  00000-0  35509-3 0  9997
2 46815  97.4553 330.5209 0010836 246.0685 113.9414 15.17800236 50304
FLOCK 4E'-8             
1 46816U 20077D   21268.79249128  .00002598  00000-0  13200-3 0  9995
2 46816  97.4609 330.8560 0009127 238.5937 121.4405 15.17736495 50317
FLOCK 4E'-5             
1 46817U 20077E   21268.77129562  .00005743  00000-0  28515-3 0  9993
2 46817  97.4609 331.0366 0013463 234.4032 125.5948 15.18002434 50322
CE-SAT IIB              
1 46818U 20077F   21268.77854633  .00001149  00000-0  61111-4 0  9994
2 46818  97.4579 330.7688 0012821 229.2734 130.7387 15.17196292 50319
FLOCK 4E'-3             
1 46819U 20077G   21268.79242031  .00001906  00000-0  96616-4 0  9999
2 46819  97.4589 331.0540 0014221 228.0156 131.9867 15.18103772 50333
FLOCK 4E'-2             
1 46820U 20077H   21268.75136353  .00002079  00000-0  10494-3 0  9997
2 46820  97.4636 331.3154 0013178 217.7512 142.2799 15.18166623 50336
FLOCK 4E'-4             
1 46821U 20077J   21268.78431852  .00001980  00000-0  99857-4 0  9994
2 46821  97.4601 331.2550 0013939 214.7798 145.2526 15.18239454 50307
FLOCK 4E'-6             
1 46822U 20077K   21268.92940691  .00001510  00000-0  77396-4 0  9990
2 46822  97.4566 330.9871 0011132 225.4352 134.6048 15.18055914 50351
FLOCK 4V-26             
1 46825U 20061BQ  21268.92114854  .00003025  00000-0  15899-3 0  9992
2 46825  97.4362 340.6723 0006714   0.5438 359.5946 15.16414210 50293
NAVSTAR 80 (USA 309)    
1 46826U 20078A   21267.45119045 -.00000013  00000-0  00000-0 0  9995
2 46826  54.7527 280.8812 0011283 190.4430 355.7899  2.00566946  6878
NUSAT-12 (DOROTHY)      
1 46827U 20079A   21268.89271145  .00004299  00000-0  14012-3 0  9996
2 46827  97.2327 339.9089 0009748 161.4436 287.2761 15.32300850 49545
NUSAT-9 (ALICE)         
1 46828U 20079B   21268.84055755  .00003765  00000-0  12130-3 0  9995
2 46828  97.2186 339.8111 0002794 182.8151 284.3388 15.32790978 49568
NUSAT-11 (CORA)         
1 46829U 20079C   21268.91324628  .00003873  00000-0  12449-3 0  9995
2 46829  97.2250 339.9422 0007696 173.8530 273.1384 15.32823654 49564
NUSAT-15 (KATHERINE)    
1 46830U 20079D   21268.89833407  .00003816  00000-0  12286-3 0  9990
2 46830  97.2387 340.5879 0005468 140.5909 336.2215 15.32798992 49578
NUSAT-14 (HEDY)         
1 46831U 20079E   21268.84701642  .00003659  00000-0  11772-3 0  9995
2 46831  97.2351 340.2408 0008983 171.6232 323.6668 15.32827290 49558
NUSAT-10 (CAROLINE)     
1 46832U 20079F   21268.85919689  .00003599  00000-0  11560-3 0  9997
2 46832  97.2366 340.2258 0009096 171.0058 300.6599 15.32890515 49552
NUSAT-13 (EMMY)         
1 46833U 20079G   21268.90061245  .00003572  00000-0  11489-3 0  9991
2 46833  97.2352 340.3237 0008372 172.0245 305.7282 15.32854042 49562
NUSAT-17 (MARY)         
1 46835U 20079J   21268.88319084  .00003632  00000-0  11796-3 0  9995
2 46835  97.2356 340.1966 0008351 186.5971 297.7483 15.32532335 49558
NUSAT-18 (VERA)         
1 46836U 20079K   21268.86360091  .00003692  00000-0  11866-3 0  9992
2 46836  97.2370 340.3782 0008978 194.3249 277.2571 15.32851879 49562
2020-079L               
1 46837U 20079L   21268.86215560  .00003967  00000-0  12390-3 0  9991
2 46837  97.2348 340.5924 0006793 190.3488 281.2815 15.33737062 49588
2020-079M               
1 46838U 20079M   21268.88461075  .00004320  00000-0  13143-3 0  9999
2 46838  97.2344 340.8794 0006049 187.9371 284.8501 15.34531084 49601
BY70-3                  
1 46839U 20079N   21268.90570542  .00005578  00000-0  16938-3 0  9994
2 46839  97.2328 340.7768 0006727 191.3243 285.0875 15.34459224 49606
NUSAT-16 (LISE)         
1 46840U 20079P   21268.88696936  .00007704  00000-0  24486-3 0  9999
2 46840  97.2380 340.3976 0007045 186.7512 293.7086 15.32874282 49562
TIANQI-11               
1 46904U 20080A   21268.88152149  .00003351  00000-0  13453-3 0  9991
2 46904  97.4374  29.4376 0011423 235.4587 222.9972 15.25619030 49148
RISAT-2BR2              
1 46905U 20081A   21268.95048273  .00000657  00000-0  60851-4 0  9994
2 46905  36.9033 354.6065 0005546  34.5458 325.5644 14.98083923 48398
KSM1-C                  
1 46906U 20081B   21268.63671881  .00000770  00000-0  67317-4 0  9997
2 46906  36.8973 353.0290 0004731  22.1790 337.9155 14.99769031 48308
KSM1-D                  
1 46907U 20081C   21268.70388218  .00000780  00000-0  68123-4 0  9992
2 46907  36.9016 352.6878 0006003  57.6803 302.4518 14.99749330 48330
LEMUR-2-OZARAK          
1 46908U 20081D   21268.94486210  .00001500  00000-0  12620-3 0  9991
2 46908  36.9027 351.8649 0007545  60.6519 299.4961 14.99476684 48426
LEMUR-2-JINDRA          
1 46909U 20081E   21268.92268097  .00001707  00000-0  14212-3 0  9999
2 46909  36.9031 351.6901 0007942  60.5550 299.6056 14.99640306 48438
LEMUR-2-WALLACE         
1 46910U 20081F   21268.92002454  .00001617  00000-0  13503-3 0  9996
2 46910  36.9028 351.6665 0008014  62.1654 298.0035 14.99609966 48423
LEMUR-2-JEREMIAH        
1 46911U 20081G   21268.90759094  .00001726  00000-0  14343-3 0  9998
2 46911  36.9028 351.5703 0007823  64.0253 296.1334 14.99683346 48435
KSM1-A                  
1 46912U 20081H   21268.90470337  .00000764  00000-0  66658-4 0  9997
2 46912  36.9017 350.5701 0002651 151.8016 208.2863 14.99849944 48436
R2                      
1 46913U 20081J   21268.54304971  .00000941  00000-0  80594-4 0  9990
2 46913  36.9055 352.3988 0010503  82.0222 278.1710 14.99931393 51133
KSM1-B                  
1 46914U 20081K   21268.63707948  .00000533  00000-0  48591-4 0  9990
2 46914  36.9064 352.1997 0008150  85.3253 274.8420 14.99749067 47666
TIANTONG-1 2            
1 46916U 20082A   21268.53035477 -.00000362  00000-0  00000-0 0  9993
2 46916   4.7646 297.5188 0003366 229.0748 153.8034  1.00272505  3352
